STARLINK-36222          
1 67097U 25298Y   26002.83335648 -.00134633  00000+0 -22176-2 0  9996
2 67097  69.9987 190.4045 0003364 274.7070 161.1467 15.52584780  4303
STARLINK-36205          
1 67098U 25298Z   26002.83335648 -.02078570  00000+0 -41556-1 0  9998
2 67098  69.9993 190.4065 0003479 283.6461 151.5434 15.49974583  4366
STARLINK-36193          
1 67099U 25298AA  26002.83335648  .00086320  00000+0  19546-2 0  9992
2 67099  69.9993 190.6396 0003383 294.9433 296.9984 15.42681021  4307
STARLINK-36215          
1 67100U 25298AB  26002.83335648 -.00132861  00000+0 -21880-2 0  9993
2 67100  69.9991 190.3951 0003445 273.3734 170.1478 15.52583260  4360
STARLINK-36200          
1 67101U 25298AC  26002.83335648 -.00119179  00000+0 -19620-2 0  9990
2 67101  69.9990 190.4013 0003152 272.1636 167.6209 15.52542259  4369
STARLINK-36255          
1 67102U 25299A   26002.83335648 -.02019541  00000+0 -38286-1 0  9994
2 67102  42.9993 188.6035 0001898 287.3085 144.7592 15.50787101  4195
STARLINK-36256          
1 67103U 25299B   26002.83335648 -.00056339  00000+0 -96013-3 0  9993
2 67103  42.9989 188.5992 0002175 280.2757 153.7030 15.50614445  4196
STARLINK-36258          
1 67104U 25299C   26002.83335648 -.00075221  00000+0 -12862-2 0  9994
2 67104  42.9992 188.5942 0002200 278.1757 157.6833 15.50630346  4193
STARLINK-36261          
1 67105U 25299D   26002.83335648 -.00956851  00000+0 -17585-1 0  9998
2 67105  42.9990 188.5897 0002009 294.5370 143.1391 15.50904657  4199
STARLINK-36259          
1 67106U 25299E   26002.83335648 -.00073114  00000+0 -12515-2 0  9990
2 67106  42.9991 188.5806 0001639 268.3953 173.2856 15.50592479  4190
STARLINK-36196          
1 67107U 25299F   26002.83335648  .00031513  00000+0  54137-3 0  9993
2 67107  42.9991 188.5854 0002300 283.9260 155.7315 15.50548927  4198
STARLINK-36208          
1 67108U 25299G   26002.83335648 -.00099173  00000+0 -17044-2 0  9997
2 67108  42.9990 188.5754 0001560 271.6939 171.8988 15.50606103  4197
