CCSDS_OMM_VERS = 2.0
CREATION_DATE  = 
ORIGINATOR     = 

OBJECT_NAME    = STARLINK-36222
OBJECT_ID      = 2025-298Y
CENTER_NAME    = EARTH
REF_FRAME      = TEME
TIME_SYSTEM    = UTC
MEAN_ELEMENT_THEORY = SGP/SGP4

EPOCH          = 2026-01-02T20:00:01.999872
MEAN_MOTION    = 15.52584780
ECCENTRICITY   = .0003364
INCLINATION    = 69.9987
RA_OF_ASC_NODE = 190.4045
ARG_OF_PERICENTER = 274.7070
MEAN_ANOMALY   = 161.1467

EPHEMERIS_TYPE = 0
CLASSIFICATION_TYPE = U
NORAD_CAT_ID   = 67097
ELEMENT_SET_NO = 999
REV_AT_EPOCH   = 430
BSTAR          = -.22176E-2
MEAN_MOTION_DOT = -.134633E-2
MEAN_MOTION_DDOT = 0

CCSDS_OMM_VERS = 2.0
CREATION_DATE  = 
ORIGINATOR     = 

OBJECT_NAME    = STARLINK-36205
OBJECT_ID      = 2025-298Z
CENTER_NAME    = EARTH
REF_FRAME      = TEME
TIME_SYSTEM    = UTC
MEAN_ELEMENT_THEORY = SGP/SGP4

EPOCH          = 2026-01-02T20:00:01.999872
MEAN_MOTION    = 15.49974583
ECCENTRICITY   = .0003479
INCLINATION    = 69.9993
RA_OF_ASC_NODE = 190.4065
ARG_OF_PERICENTER = 283.6461
MEAN_ANOMALY   = 151.5434

EPHEMERIS_TYPE = 0
CLASSIFICATION_TYPE = U
NORAD_CAT_ID   = 67098
ELEMENT_SET_NO = 999
REV_AT_EPOCH   = 436
BSTAR          = -.41556E-1
MEAN_MOTION_DOT = -.207857E-1
MEAN_MOTION_DDOT = 0

CCSDS_OMM_VERS = 2.0
CREATION_DATE  = 
ORIGINATOR     = 

OBJECT_NAME    = STARLINK-36193
OBJECT_ID      = 2025-298AA
CENTER_NAME    = EARTH
REF_FRAME      = TEME
TIME_SYSTEM    = UTC
MEAN_ELEMENT_THEORY = SGP/SGP4

EPOCH          = 2026-01-02T20:00:01.999872
MEAN_MOTION    = 15.42681021
ECCENTRICITY   = .0003383
INCLINATION    = 69.9993
RA_OF_ASC_NODE = 190.6396
ARG_OF_PERICENTER = 294.9433
MEAN_ANOMALY   = 296.9984

EPHEMERIS_TYPE = 0
CLASSIFICATION_TYPE = U
NORAD_CAT_ID   = 67099
ELEMENT_SET_NO = 999
REV_AT_EPOCH   = 430
BSTAR          = .19546E-2
MEAN_MOTION_DOT = .8632E-3
MEAN_MOTION_DDOT = 0

CCSDS_OMM_VERS = 2.0
CREATION_DATE  = 
ORIGINATOR     = 

OBJECT_NAME    = STARLINK-36215
OBJECT_ID      = 2025-298AB
CENTER_NAME    = EARTH
REF_FRAME      = TEME
TIME_SYSTEM    = UTC
MEAN_ELEMENT_THEORY = SGP/SGP4

EPOCH          = 2026-01-02T20:00:01.999872
MEAN_MOTION    = 15.52583260
ECCENTRICITY   = .0003445
INCLINATION    = 69.9991
RA_OF_ASC_NODE = 190.3951
ARG_OF_PERICENTER = 273.3734
MEAN_ANOMALY   = 170.1478

EPHEMERIS_TYPE = 0
CLASSIFICATION_TYPE = U
NORAD_CAT_ID   = 67100
ELEMENT_SET_NO = 999
REV_AT_EPOCH   = 436
BSTAR          = -.2188E-2
MEAN_MOTION_DOT = -.132861E-2
MEAN_MOTION_DDOT = 0

CCSDS_OMM_VERS = 2.0
CREATION_DATE  = 
ORIGINATOR     = 

OBJECT_NAME    = STARLINK-36200
OBJECT_ID      = 2025-298AC
CENTER_NAME    = EARTH
REF_FRAME      = TEME
TIME_SYSTEM    = UTC
MEAN_ELEMENT_THEORY = SGP/SGP4

EPOCH          = 2026-01-02T20:00:01.999872
MEAN_MOTION    = 15.52542259
ECCENTRICITY   = .0003152
INCLINATION    = 69.9990
RA_OF_ASC_NODE = 190.4013
ARG_OF_PERICENTER = 272.1636
MEAN_ANOMALY   = 167.6209

EPHEMERIS_TYPE = 0
CLASSIFICATION_TYPE = U
NORAD_CAT_ID   = 67101
ELEMENT_SET_NO = 999
REV_AT_EPOCH   = 436
BSTAR          = -.1962E-2
MEAN_MOTION_DOT = -.119179E-2
MEAN_MOTION_DDOT = 0

CCSDS_OMM_VERS = 2.0
CREATION_DATE  = 
ORIGINATOR     = 

OBJECT_NAME    = STARLINK-36255
OBJECT_ID      = 2025-299A
CENTER_NAME    = EARTH
REF_FRAME      = TEME
TIME_SYSTEM    = UTC
MEAN_ELEMENT_THEORY = SGP/SGP4

EPOCH          = 2026-01-02T20:00:01.999872
MEAN_MOTION    = 15.50787101
ECCENTRICITY   = .0001898
INCLINATION    = 42.9993
RA_OF_ASC_NODE = 188.6035
ARG_OF_PERICENTER = 287.3085
MEAN_ANOMALY   = 144.7592

EPHEMERIS_TYPE = 0
CLASSIFICATION_TYPE = U
NORAD_CAT_ID   = 67102
ELEMENT_SET_NO = 999
REV_AT_EPOCH   = 419
BSTAR          = -.38286E-1
MEAN_MOTION_DOT = -.2019541E-1
MEAN_MOTION_DDOT = 0

CCSDS_OMM_VERS = 2.0
CREATION_DATE  = 
ORIGINATOR     = 

OBJECT_NAME    = STARLINK-36256
OBJECT_ID      = 2025-299B
CENTER_NAME    = EARTH
REF_FRAME      = TEME
TIME_SYSTEM    = UTC
MEAN_ELEMENT_THEORY = SGP/SGP4

EPOCH          = 2026-01-02T20:00:01.999872
MEAN_MOTION    = 15.50614445
ECCENTRICITY   = .0002175
INCLINATION    = 42.9989
RA_OF_ASC_NODE = 188.5992
ARG_OF_PERICENTER = 280.2757
MEAN_ANOMALY   = 153.7030

EPHEMERIS_TYPE = 0
CLASSIFICATION_TYPE = U
NORAD_CAT_ID   = 67103
ELEMENT_SET_NO = 999
REV_AT_EPOCH   = 419
BSTAR          = -.96013E-3
MEAN_MOTION_DOT = -.56339E-3
MEAN_MOTION_DDOT = 0

CCSDS_OMM_VERS = 2.0
CREATION_DATE  = 
ORIGINATOR     = 

OBJECT_NAME    = STARLINK-36258
OBJECT_ID      = 2025-299C
CENTER_NAME    = EARTH
REF_FRAME      = TEME
TIME_SYSTEM    = UTC
MEAN_ELEMENT_THEORY = SGP/SGP4

EPOCH          = 2026-01-02T20:00:01.999872
MEAN_MOTION    = 15.50630346
ECCENTRICITY   = .00022
INCLINATION    = 42.9992
RA_OF_ASC_NODE = 188.5942
ARG_OF_PERICENTER = 278.1757
MEAN_ANOMALY   = 157.6833

EPHEMERIS_TYPE = 0
CLASSIFICATION_TYPE = U
NORAD_CAT_ID   = 67104
ELEMENT_SET_NO = 999
REV_AT_EPOCH   = 419
BSTAR          = -.12862E-2
MEAN_MOTION_DOT = -.75221E-3
MEAN_MOTION_DDOT = 0

CCSDS_OMM_VERS = 2.0
CREATION_DATE  = 
ORIGINATOR     = 

OBJECT_NAME    = STARLINK-36261
OBJECT_ID      = 2025-299D
CENTER_NAME    = EARTH
REF_FRAME      = TEME
TIME_SYSTEM    = UTC
MEAN_ELEMENT_THEORY = SGP/SGP4

EPOCH          = 2026-01-02T20:00:01.999872
MEAN_MOTION    = 15.50904657
ECCENTRICITY   = .0002009
INCLINATION    = 42.9990
RA_OF_ASC_NODE = 188.5897
ARG_OF_PERICENTER = 294.5370
MEAN_ANOMALY   = 143.1391

EPHEMERIS_TYPE = 0
CLASSIFICATION_TYPE = U
NORAD_CAT_ID   = 67105
ELEMENT_SET_NO = 999
REV_AT_EPOCH   = 419
BSTAR          = -.17585E-1
MEAN_MOTION_DOT = -.956851E-2
MEAN_MOTION_DDOT = 0

CCSDS_OMM_VERS = 2.0
CREATION_DATE  = 
ORIGINATOR     = 

OBJECT_NAME    = STARLINK-36259
OBJECT_ID      = 2025-299E
CENTER_NAME    = EARTH
REF_FRAME      = TEME
TIME_SYSTEM    = UTC
MEAN_ELEMENT_THEORY = SGP/SGP4

EPOCH          = 2026-01-02T20:00:01.999872
MEAN_MOTION    = 15.50592479
ECCENTRICITY   = .0001639
INCLINATION    = 42.9991
RA_OF_ASC_NODE = 188.5806
ARG_OF_PERICENTER = 268.3953
MEAN_ANOMALY   = 173.2856

EPHEMERIS_TYPE = 0
CLASSIFICATION_TYPE = U
NORAD_CAT_ID   = 67106
ELEMENT_SET_NO = 999
REV_AT_EPOCH   = 419
BSTAR          = -.12515E-2
MEAN_MOTION_DOT = -.73114E-3
MEAN_MOTION_DDOT = 0

CCSDS_OMM_VERS = 2.0
CREATION_DATE  = 
ORIGINATOR     = 

OBJECT_NAME    = STARLINK-36196
OBJECT_ID      = 2025-299F
CENTER_NAME    = EARTH
REF_FRAME      = TEME
TIME_SYSTEM    = UTC
MEAN_ELEMENT_THEORY = SGP/SGP4

EPOCH          = 2026-01-02T20:00:01.999872
MEAN_MOTION    = 15.50548927
ECCENTRICITY   = .00023
INCLINATION    = 42.9991
RA_OF_ASC_NODE = 188.5854
ARG_OF_PERICENTER = 283.9260
MEAN_ANOMALY   = 155.7315

EPHEMERIS_TYPE = 0
CLASSIFICATION_TYPE = U
NORAD_CAT_ID   = 67107
ELEMENT_SET_NO = 999
REV_AT_EPOCH   = 419
BSTAR          = .54137E-3
MEAN_MOTION_DOT = .31513E-3
MEAN_MOTION_DDOT = 0

CCSDS_OMM_VERS = 2.0
CREATION_DATE  = 
ORIGINATOR     = 

OBJECT_NAME    = STARLINK-36208
OBJECT_ID      = 2025-299G
CENTER_NAME    = EARTH
REF_FRAME      = TEME
TIME_SYSTEM    = UTC
MEAN_ELEMENT_THEORY = SGP/SGP4

EPOCH          = 2026-01-02T20:00:01.999872
MEAN_MOTION    = 15.50606103
ECCENTRICITY   = .000156
INCLINATION    = 42.9990
RA_OF_ASC_NODE = 188.5754
ARG_OF_PERICENTER = 271.6939
MEAN_ANOMALY   = 171.8988

EPHEMERIS_TYPE = 0
CLASSIFICATION_TYPE = U
NORAD_CAT_ID   = 67108
ELEMENT_SET_NO = 999
REV_AT_EPOCH   = 419
BSTAR          = -.17044E-2
MEAN_MOTION_DOT = -.99173E-3
MEAN_MOTION_DDOT = 0

